H1 CPF 01  gfz 2022 08 13 00  7251 tandemx   
H2 1003001  6202 36605    2022 08 13 00 59 42 2022 08 18 00 00 42   120 1 1  0 0 0
H9
10 0 59804  20142.000000  0    4248427.483   1176690.752   5283372.347
10 0 59804  20262.000000  0    4931079.875   1128661.392   4666419.360
10 0 59804  20382.000000  0    5526450.192   1049724.233   3967339.247
10 0 59804  20502.000000  0    6023590.880    942876.725   3198415.400
10 0 59804  20622.000000  0    6413334.888    811782.902   2373173.112
10 0 59804  20742.000000  0    6688473.731    660676.457   1506140.721
10 0 59804  20862.000000  0    6843899.869    494251.074    612588.448
10 0 59804  20982.000000  0    6876706.483    317539.414   -291747.525
10 0 59804  21102.000000  0    6786244.071    135784.356  -1190951.529
10 0 59804  21222.000000  0    6574130.205    -45693.911  -2069217.549
10 0 59804  21342.000000  0    6244213.617   -221632.033  -2911134.236
10 0 59804  21462.000000  0    5802494.893   -386955.325  -3701960.036
10 0 59804  21582.000000  0    5257005.270   -536903.610  -4427883.275
10 0 59804  21702.000000  0    4617647.011   -667147.531  -5076260.889
10 0 59804  21822.000000  0    3896002.085   -773893.053  -5635831.932
10 0 59804  21942.000000  0    3105113.205   -853973.266  -6096904.731
10 0 59804  22062.000000  0    2259241.010   -904924.713  -6451514.149
10 0 59804  22182.000000  0    1373604.069   -925045.882  -6693547.217
10 0 59804  22302.000000  0     464106.718   -913439.409  -6818838.178
10 0 59804  22422.000000  0    -452942.688   -870035.703  -6825232.705
10 0 59804  22542.000000  0   -1361117.413   -795598.129  -6712620.297
10 0 59804  22662.000000  0   -2244159.897   -691709.847  -6482936.459
10 0 59804  22782.000000  0   -3086266.259   -560742.209  -6140131.753
10 0 59804  22902.000000  0   -3872362.696   -405805.655  -5690111.530
10 0 59804  23022.000000  0   -4588374.645   -230683.269  -5140645.687
10 0 59804  23142.000000  0   -5221481.049    -39748.052  -4501245.293
10 0 59804  23262.000000  0   -5760350.147    162134.243  -3783010.239
10 0 59804  23382.000000  0   -6195353.238    369716.443  -2998446.209
10 0 59804  23502.000000  0   -6518749.146    577492.186  -2161253.403
10 0 59804  23622.000000  0   -6724835.135    779827.503  -1286090.080
10 0 59804  23742.000000  0   -6810061.237    971097.221   -388314.558
10 0 59804  23862.000000  0   -6773100.668   1145823.592    516291.226
10 0 59804  23982.000000  0   -6614875.374   1298813.459   1411805.497
10 0 59804  24102.000000  0   -6338538.455   1425290.867   2282455.268
10 0 59804  24222.000000  0   -5949410.918   1521021.046   3112903.714
10 0 59804  24342.000000  0   -5454873.884   1582422.288   3888528.734
10 0 59804  24462.000000  0   -4864219.807   1606663.085   4595685.463
10 0 59804  24582.000000  0   -4188468.204   1591742.405   5221947.801
10 0 59804  24702.000000  0   -3440151.116   1536551.325   5756325.447
10 0 59804  24822.000000  0   -2633072.898   1440914.827   6189454.204
10 0 59804  24942.000000  0   -1782047.726   1305613.342   6513756.187
10 0 59804  25062.000000  0    -902621.468   1132382.559   6723565.473
10 0 59804  25182.000000  0     -10785.607    923892.585   6815220.042
10 0 59804  25302.000000  0     877313.046    683706.634   6787121.240
10 0 59804  25422.000000  0    1745663.497    416220.086   6639759.785
10 0 59804  25542.000000  0    2578677.940    126580.766   6375708.000
10 0 59804  25662.000000  0    3361471.704   -179408.842   5999579.017
10 0 59804  25782.000000  0    4080131.757   -495405.910   5517950.919
10 0 59804  25902.000000  0    4721967.887   -814656.085   4939257.370
10 0 59804  26022.000000  0    5275743.365  -1130134.673   4273646.121
10 0 59804  26142.000000  0    5731879.961  -1434697.317   3532805.414
10 0 59804  26262.000000  0    6082633.379  -1721237.527   2729760.965
10 0 59804  26382.000000  0    6322233.932  -1982846.849   1878645.999
10 0 59804  26502.000000  0    6446988.962  -2212974.156    994449.084
10 0 59804  26622.000000  0    6455344.468  -2405580.205     92743.792
10 0 59804  26742.000000  0    6347903.250  -2555283.073   -810594.290
10 0 59804  26862.000000  0    6127399.465  -2657490.482  -1699676.404
10 0 59804  26982.000000  0    5798629.147  -2708516.389  -2558888.608
10 0 59804  27102.000000  0    5368340.340  -2705677.653  -3373171.804
10 0 59804  27222.000000  0    4845086.348  -2647369.542  -4128288.183
10 0 59804  27342.000000  0    4239046.695  -2533119.117  -4811069.737
10 0 59804  27462.000000  0    3561818.693  -2363614.695  -5409644.147
10 0 59804  27582.000000  0    2826186.470  -2140710.940  -5913632.237
10 0 59804  27702.000000  0    2045875.683  -1867410.985  -6314317.062
10 0 59804  27822.000000  0    1235295.647  -1547825.672  -6604785.262
10 0 59804  27942.000000  0     409273.104  -1187110.058  -6780035.209
10 0 59804  28062.000000  0    -417215.111   -791380.374  -6837053.495
10 0 59804  28182.000000  0   -1229307.503   -367611.865  -6774860.518
10 0 59804  28302.000000  0   -2012519.001     76481.320  -6594525.564
10 0 59804  28422.000000  0   -2752993.273    532582.972  -6299149.417
10 0 59804  28542.000000  0   -3437742.332    991925.789  -5893816.957
10 0 59804  28662.000000  0   -4054872.478   1445455.202  -5385519.844
10 0 59804  28782.000000  0   -4593793.312   1884003.388  -4783047.536
10 0 59804  28902.000000  0   -5045405.190   2298472.494  -4096846.986
10 0 59804  29022.000000  0   -5402260.494   2680021.299  -3338850.901
10 0 59804  29142.000000  0   -5658696.031   3020251.765  -2522278.677
10 0 59804  29262.000000  0   -5810933.968   3311392.538  -1661410.813
10 0 59804  29382.000000  0   -5857146.690   3546474.592   -771339.550
10 0 59804  29502.000000  0   -5797482.967   3719493.822    132299.046
10 0 59804  29622.000000  0   -5634055.587   3825556.622   1033606.692
10 0 59804  29742.000000  0   -5370887.276   3861003.313   1916712.265
10 0 59804  29862.000000  0   -5013817.291   3823506.853   2766060.017
10 0 59804  29982.000000  0   -4570373.206   3712144.592   3566691.321
10 0 59804  30102.000000  0   -4049609.065   3527440.769   4304515.184
10 0 59804  30222.000000  0   -3461915.116   3271378.259   4966559.291
10 0 59804  30342.000000  0   -2818804.735   2947381.771   5541199.020
10 0 59804  30462.000000  0   -2132681.963   2560271.094   6018359.414
10 0 59804  30582.000000  0   -1416596.850   2116186.318   6389687.567
10 0 59804  30702.000000  0    -683992.655   1622486.660   6648691.824
10 0 59804  30822.000000  0      51546.878   1087626.034   6790848.241
10 0 59804  30942.000000  0     776549.126    521006.789   6813675.110
10 0 59804  31062.000000  0    1477898.530    -67185.441   6716773.133
10 0 59804  31182.000000  0    2143072.750   -666164.020   6501832.511
10 0 59804  31302.000000  0    2760365.860  -1264738.694   6172605.887
10 0 59804  31422.000000  0    3319095.907  -1851523.738   5734847.778
10 0 59804  31542.000000  0    3809793.330  -2415155.072   5196219.442
10 0 59804  31662.000000  0    4224365.757  -2944511.002   4566160.405
10 0 59804  31782.000000  0    4556236.952  -3428934.305   3855728.705
10 0 59804  31902.000000  0    4800457.196  -3858450.448   3077410.207
10 0 59804  32022.000000  0    4953782.591  -4223976.431   2244899.285
10 0 59804  32142.000000  0    5014719.333  -4517514.805   1372854.476
10 0 59804  32262.000000  0    4983532.374  -4732328.863    476635.289
10 0 59804  32382.000000  0    4862218.667  -4863094.701   -427975.569
10 0 59804  32502.000000  0    4654445.208  -4906025.187  -1325058.751
10 0 59804  32622.000000  0    4365453.298  -4858962.621  -2198847.521
10 0 59804  32742.000000  0    4001931.433  -4721438.233  -3034012.051
10 0 59804  32862.000000  0    3571860.563  -4494697.144  -3815933.015
10 0 59804  32982.000000  0    3084336.722  -4181689.058  -4530958.752
10 0 59804  33102.000000  0    2549374.954  -3787024.634  -5166641.480
10 0 59804  33222.000000  0    1977699.567  -3316899.833  -5711946.471
10 0 59804  33342.000000  0    1380528.160  -2778992.421  -6157433.067
10 0 59804  33462.000000  0     769351.741  -2182332.378  -6495408.198
10 0 59804  33582.000000  0     155714.730  -1537146.608  -6720048.940
10 0 59804  33702.000000  0    -448999.589   -854682.379  -6827492.077
10 0 59804  33822.000000  0   -1033774.638   -147013.373  -6815892.415
10 0 59804  33942.000000  0   -1588156.349    573169.090  -6685450.520
10 0 59804  34062.000000  0   -2102435.735   1292777.595  -6438409.195
10 0 59804  34182.000000  0   -2567814.897   1998560.515  -6079019.126
10 0 59804  34302.000000  0   -2976556.005   2677340.314  -5613474.296
10 0 59804  34422.000000  0   -3322110.841   3316256.973  -5049816.642
10 0 59804  34542.000000  0   -3599229.475   3903011.804  -4397809.043
10 0 59804  34662.000000  0   -3804044.619   4426106.893  -3668776.094
10 0 59804  34782.000000  0   -3934128.228   4875074.412  -2875415.435
10 0 59804  34902.000000  0   -3988520.842   5240691.592  -2031583.497
10 0 59804  35022.000000  0   -3967733.435   5515176.927  -1152056.882
10 0 59804  35142.000000  0   -3873719.379   5692362.986   -252271.993
10 0 59804  35262.000000  0   -3709815.935   5767837.453    651951.452
10 0 59804  35382.000000  0   -3480658.510   5739050.938   1544696.004
10 0 59804  35502.000000  0   -3192067.040   5605388.407   2410237.173
10 0 59804  35622.000000  0   -2850907.118   5368199.046   3233330.551
10 0 59804  35742.000000  0   -2464931.599   5030785.730   3999486.582
10 0 59804  35862.000000  0   -2042606.802   4598356.457   4695229.777
10 0 59804  35982.000000  0   -1592927.725   4077938.056   5308337.440
10 0 59804  36102.000000  0   -1125225.944   3478254.351   5828053.839
10 0 59804  36222.000000  0    -648975.541   2809571.645   6245274.623
10 0 59804  36342.000000  0    -173601.617   2083516.045   6552700.207
10 0 59804  36462.000000  0     291705.064   1312867.494   6744957.488
10 0 59804  36582.000000  0     738165.194    511331.763   6818688.589
99
